[{"OBJECT_NAME":"STARLINK-31206","OBJECT_ID":"2024-038F","EPOCH":"2025-09-13T00:28:25.834080","MEAN_MOTION":15.27582465,"ECCENTRICITY":9.524e-5,"INCLINATION":43.0035,"RA_OF_ASC_NODE":245.4008,"ARG_OF_PERICENTER":273.6436,"MEAN_ANOMALY":86.4307,"EPHEMERIS_TYPE":0,"CLASSIFICATION_TYPE":"U","NORAD_CAT_ID":59028,"ELEMENT_SET_NO":999,"REV_AT_EPOCH":8835,"BSTAR":-9.080935e-5,"MEAN_MOTION_DOT":-2.76e-5,"MEAN_MOTION_DDOT":0},{"OBJECT_NAME":"STARLINK-31224","OBJECT_ID":"2024-038G","EPOCH":"2025-09-12T20:36:48.667104","MEAN_MOTION":15.27580843,"ECCENTRICITY":8.151e-5,"INCLINATION":43.0035,"RA_OF_ASC_NODE":311.1125,"ARG_OF_PERICENTER":273.0092,"MEAN_ANOMALY":87.0667,"EPHEMERIS_TYPE":0,"CLASSIFICATION_TYPE":"U","NORAD_CAT_ID":59029,"ELEMENT_SET_NO":999,"REV_AT_EPOCH":8756,"BSTAR":5.064701e-5,"MEAN_MOTION_DOT":1.132e-5,"MEAN_MOTION_DDOT":0},{"OBJECT_NAME":"STARLINK-31186","OBJECT_ID":"2024-038H","EPOCH":"2025-09-13T06:00:02.000160","MEAN_MOTION":15.27586783,"ECCENTRICITY":0.00014098,"INCLINATION":42.9998,"RA_OF_ASC_NODE":309.333,"ARG_OF_PERICENTER":259.4041,"MEAN_ANOMALY":277.1996,"EPHEMERIS_TYPE":0,"CLASSIFICATION_TYPE":"U","NORAD_CAT_ID":59030,"ELEMENT_SET_NO":999,"REV_AT_EPOCH":586,"BSTAR":-0.00031757633,"MEAN_MOTION_DOT":-8.992e-5,"MEAN_MOTION_DDOT":0},{"OBJECT_NAME":"STARLINK-31211","OBJECT_ID":"2024-038J","EPOCH":"2025-09-12T20:29:25.390176","MEAN_MOTION":15.27573013,"ECCENTRICITY":4.189e-5,"INCLINATION":42.9998,"RA_OF_ASC_NODE":311.0708,"ARG_OF_PERICENTER":359.3291,"MEAN_ANOMALY":0.756,"EPHEMERIS_TYPE":0,"CLASSIFICATION_TYPE":"U","NORAD_CAT_ID":59031,"ELEMENT_SET_NO":999,"REV_AT_EPOCH":8745,"BSTAR":-1.0386231e-5,"MEAN_MOTION_DOT":-5.47e-6,"MEAN_MOTION_DDOT":0},{"OBJECT_NAME":"STARLINK-30862","OBJECT_ID":"2024-038K","EPOCH":"2025-09-13T03:54:33.270912","MEAN_MOTION":15.27572389,"ECCENTRICITY":0.00013458,"INCLINATION":43.002,"RA_OF_ASC_NODE":298.749,"ARG_OF_PERICENTER":279.4915,"MEAN_ANOMALY":80.5785,"EPHEMERIS_TYPE":0,"CLASSIFICATION_TYPE":"U","NORAD_CAT_ID":59032,"ELEMENT_SET_NO":999,"REV_AT_EPOCH":8762,"BSTAR":-3.5655653e-5,"MEAN_MOTION_DOT":-1.243e-5,"MEAN_MOTION_DDOT":0},{"OBJECT_NAME":"STARLINK-31210","OBJECT_ID":"2024-038L","EPOCH":"2025-09-12T13:16:20.549568","MEAN_MOTION":15.27573875,"ECCENTRICITY":0.00013993,"INCLINATION":43.0021,"RA_OF_ASC_NODE":309.6668,"ARG_OF_PERICENTER":265.5503,"MEAN_ANOMALY":94.5189,"EPHEMERIS_TYPE":0,"CLASSIFICATION_TYPE":"U","NORAD_CAT_ID":59033,"ELEMENT_SET_NO":999,"REV_AT_EPOCH":8761,"BSTAR":7.9944307e-5,"MEAN_MOTION_DOT":1.938e-5,"MEAN_MOTION_DDOT":0},{"OBJECT_NAME":"STARLINK-31231","OBJECT_ID":"2024-038M","EPOCH":"2025-09-12T21:01:34.195872","MEAN_MOTION":15.27588578,"ECCENTRICITY":0.00018095,"INCLINATION":43.0046,"RA_OF_ASC_NODE":307.7915,"ARG_OF_PERICENTER":273.7342,"MEAN_ANOMALY":86.3303,"EPHEMERIS_TYPE":0,"CLASSIFICATION_TYPE":"U","NORAD_CAT_ID":59034,"ELEMENT_SET_NO":999,"REV_AT_EPOCH":8749,"BSTAR":-7.6019987e-5,"MEAN_MOTION_DOT":-2.354e-5,"MEAN_MOTION_DDOT":0},{"OBJECT_NAME":"STARLINK-31207","OBJECT_ID":"2024-038N","EPOCH":"2025-09-12T20:56:00.705696","MEAN_MOTION":15.27579359,"ECCENTRICITY":0.00013164,"INCLINATION":43.0049,"RA_OF_ASC_NODE":307.761,"ARG_OF_PERICENTER":267.6784,"MEAN_ANOMALY":92.3917,"EPHEMERIS_TYPE":0,"CLASSIFICATION_TYPE":"U","NORAD_CAT_ID":59035,"ELEMENT_SET_NO":999,"REV_AT_EPOCH":8766,"BSTAR":8.4192377e-5,"MEAN_MOTION_DOT":2.055e-5,"MEAN_MOTION_DDOT":0},{"OBJECT_NAME":"STARLINK-31217","OBJECT_ID":"2024-038P","EPOCH":"2025-09-13T06:02:54.698208","MEAN_MOTION":15.27571985,"ECCENTRICITY":9.978e-5,"INCLINATION":43.0058,"RA_OF_ASC_NODE":211.2937,"ARG_OF_PERICENTER":278.2288,"MEAN_ANOMALY":81.8451,"EPHEMERIS_TYPE":0,"CLASSIFICATION_TYPE":"U","NORAD_CAT_ID":59036,"ELEMENT_SET_NO":999,"REV_AT_EPOCH":8880,"BSTAR":-2.9387521e-5,"MEAN_MOTION_DOT":-1.07e-5,"MEAN_MOTION_DDOT":0},{"OBJECT_NAME":"STARLINK-31208","OBJECT_ID":"2024-038Q","EPOCH":"2025-09-12T21:11:58.812576","MEAN_MOTION":15.25910418,"ECCENTRICITY":0.00012247,"INCLINATION":43.001,"RA_OF_ASC_NODE":310.4061,"ARG_OF_PERICENTER":256.9452,"MEAN_ANOMALY":103.1262,"EPHEMERIS_TYPE":0,"CLASSIFICATION_TYPE":"U","NORAD_CAT_ID":59037,"ELEMENT_SET_NO":999,"REV_AT_EPOCH":8763,"BSTAR":4.1221741e-5,"MEAN_MOTION_DOT":8.21e-6,"MEAN_MOTION_DDOT":0},{"OBJECT_NAME":"STARLINK-31235","OBJECT_ID":"2024-038R","EPOCH":"2025-09-12T20:52:19.329888","MEAN_MOTION":15.27581963,"ECCENTRICITY":3.78e-5,"INCLINATION":43.0023,"RA_OF_ASC_NODE":307.7416,"ARG_OF_PERICENTER":344.1374,"MEAN_ANOMALY":15.9466,"EPHEMERIS_TYPE":0,"CLASSIFICATION_TYPE":"U","NORAD_CAT_ID":59038,"ELEMENT_SET_NO":999,"REV_AT_EPOCH":8760,"BSTAR":-3.1286531e-5,"MEAN_MOTION_DOT":-1.123e-5,"MEAN_MOTION_DDOT":0},{"OBJECT_NAME":"STARLINK-31220","OBJECT_ID":"2024-038S","EPOCH":"2025-09-13T04:46:06.254400","MEAN_MOTION":15.27578612,"ECCENTRICITY":0.00011918,"INCLINATION":43.0002,"RA_OF_ASC_NODE":309.3552,"ARG_OF_PERICENTER":272.6643,"MEAN_ANOMALY":87.4072,"EPHEMERIS_TYPE":0,"CLASSIFICATION_TYPE":"U","NORAD_CAT_ID":59039,"ELEMENT_SET_NO":999,"REV_AT_EPOCH":8761,"BSTAR":2.6619986e-5,"MEAN_MOTION_DOT":4.71e-6,"MEAN_MOTION_DDOT":0},{"OBJECT_NAME":"STARLINK-31225","OBJECT_ID":"2024-038T","EPOCH":"2025-09-13T04:22:44.606208","MEAN_MOTION":15.27574264,"ECCENTRICITY":0.00010259,"INCLINATION":43.0004,"RA_OF_ASC_NODE":305.749,"ARG_OF_PERICENTER":273.4801,"MEAN_ANOMALY":86.5933,"EPHEMERIS_TYPE":0,"CLASSIFICATION_TYPE":"U","NORAD_CAT_ID":59040,"ELEMENT_SET_NO":999,"REV_AT_EPOCH":8754,"BSTAR":7.15208e-6,"MEAN_MOTION_DOT":-6.5e-7,"MEAN_MOTION_DDOT":0},{"OBJECT_NAME":"STARLINK-31240","OBJECT_ID":"2024-038U","EPOCH":"2025-09-12T19:53:19.203936","MEAN_MOTION":15.27580812,"ECCENTRICITY":0.00013521,"INCLINATION":43.0019,"RA_OF_ASC_NODE":308.2972,"ARG_OF_PERICENTER":269.7996,"MEAN_ANOMALY":90.27,"EPHEMERIS_TYPE":0,"CLASSIFICATION_TYPE":"U","NORAD_CAT_ID":59041,"ELEMENT_SET_NO":999,"REV_AT_EPOCH":8759,"BSTAR":6.0357126e-5,"MEAN_MOTION_DOT":1.399e-5,"MEAN_MOTION_DDOT":0},{"OBJECT_NAME":"STARLINK-31202","OBJECT_ID":"2024-038V","EPOCH":"2025-09-12T19:58:40.956672","MEAN_MOTION":15.27561522,"ECCENTRICITY":0.0001026,"INCLINATION":43.0008,"RA_OF_ASC_NODE":307.4679,"ARG_OF_PERICENTER":266.5519,"MEAN_ANOMALY":93.5215,"EPHEMERIS_TYPE":0,"CLASSIFICATION_TYPE":"U","NORAD_CAT_ID":59042,"ELEMENT_SET_NO":999,"REV_AT_EPOCH":8766,"BSTAR":-3.7551738e-5,"MEAN_MOTION_DOT":-1.294e-5,"MEAN_MOTION_DDOT":0},{"OBJECT_NAME":"STARLINK-31234","OBJECT_ID":"2024-038W","EPOCH":"2025-09-12T10:19:07.737888","MEAN_MOTION":15.27579805,"ECCENTRICITY":0.0001055,"INCLINATION":43.0011,"RA_OF_ASC_NODE":310.4632,"ARG_OF_PERICENTER":134.5851,"MEAN_ANOMALY":225.5087,"EPHEMERIS_TYPE":0,"CLASSIFICATION_TYPE":"U","NORAD_CAT_ID":59043,"ELEMENT_SET_NO":999,"REV_AT_EPOCH":8742,"BSTAR":4.9046667e-5,"MEAN_MOTION_DOT":1.088e-5,"MEAN_MOTION_DDOT":0}]
