STARLINK-31206          
1 59028U 24038F   25256.01974345 -.00002760  00000+0 -90809-4 0  9990
2 59028  43.0035 245.4008 0000952 273.6436  86.4307 15.27582465 88358
STARLINK-31224          
1 59029U 24038G   25255.85889661  .00001132  00000+0  50647-4 0  9994
2 59029  43.0035 311.1125 0000815 273.0092  87.0667 15.27580843 87566
STARLINK-31186          
1 59030U 24038H   25256.25002315 -.00008992  00000+0 -31758-3 0  9998
2 59030  42.9998 309.3330 0001409 259.4041 277.1996 15.27586783  5862
STARLINK-31211          
1 59031U 24038J   25255.85376609 -.00000547  00000+0 -10386-4 0  9997
2 59031  42.9998 311.0708 0000418 359.3291   0.7560 15.27573013 87452
STARLINK-30862          
1 59032U 24038K   25256.16288508 -.00001243  00000+0 -35656-4 0  9994
2 59032  43.0020 298.7490 0001345 279.4915  80.5785 15.27572389 87624
STARLINK-31210          
1 59033U 24038L   25255.55301562  .00001938  00000+0  79944-4 0  9990
2 59033  43.0021 309.6668 0001399 265.5503  94.5189 15.27573875 87616
STARLINK-31231          
1 59034U 24038M   25255.87609023 -.00002354  00000+0 -76020-4 0  9996
2 59034  43.0046 307.7915 0001809 273.7342  86.3303 15.27588578 87495
STARLINK-31207          
1 59035U 24038N   25255.87223039  .00002055  00000+0  84192-4 0  9991
2 59035  43.0049 307.7610 0001316 267.6784  92.3917 15.27579359 87660
STARLINK-31217          
1 59036U 24038P   25256.25202197 -.00001070  00000+0 -29388-4 0  9991
2 59036  43.0058 211.2937 0000997 278.2288  81.8451 15.27571985 88803
STARLINK-31208          
1 59037U 24038Q   25255.88331959  .00000821  00000+0  41222-4 0  9991
2 59037  43.0010 310.4061 0001224 256.9452 103.1262 15.25910418 87636
STARLINK-31235          
1 59038U 24038R   25255.86966817 -.00001123  00000+0 -31287-4 0  9995
2 59038  43.0023 307.7416 0000378 344.1374  15.9466 15.27581963 87600
STARLINK-31220          
1 59039U 24038S   25256.19868350  .00000471  00000+0  26620-4 0  9994
2 59039  43.0002 309.3552 0001191 272.6643  87.4072 15.27578612 87610
STARLINK-31225          
1 59040U 24038T   25256.18246072 -.00000065  00000+0  71521-5 0  9997
2 59040  43.0004 305.7490 0001025 273.4801  86.5933 15.27574264 87543
STARLINK-31240          
1 59041U 24038U   25255.82869449  .00001399  00000+0  60357-4 0  9991
2 59041  43.0019 308.2972 0001352 269.7996  90.2700 15.27580812 87594
STARLINK-31202          
1 59042U 24038V   25255.83241848 -.00001294  00000+0 -37552-4 0  9997
2 59042  43.0008 307.4679 0001026 266.5519  93.5215 15.27561522 87664
STARLINK-31234          
1 59043U 24038W   25255.42995067  .00001088  00000+0  49047-4 0  9993
2 59043  43.0011 310.4632 0001055 134.5851 225.5087 15.27579805 87428
